{
"type": "FeatureCollection",
"name": "neighborhood_density",
"features": [
{ "type": "Feature", "properties": { "ntaname": "Gramercy", "boroname": "Manhattan", "ntaabbrev": "Grmrcy", "nta2020": "MN0602", "hydrant_count": 269, "area_km2": 0.7, "hydrants_per_km2": 384.7 }, "geometry": { "type": "Point", "coordinates": [ -73.983325685252083, 40.7373483 ] } },
{ "type": "Feature", "properties": { "ntaname": "SoHo-Little Italy-Hudson Square", "boroname": "Manhattan", "ntaabbrev": "SoHo", "nta2020": "MN0201", "hydrant_count": 432, "area_km2": 1.2, "hydrants_per_km2": 360.0 }, "geometry": { "type": "Point", "coordinates": [ -73.999814530730447, 40.7226848 ] } },
{ "type": "Feature", "properties": { "ntaname": "Tribeca-Civic Center", "boroname": "Manhattan", "ntaabbrev": "TriBeCa", "nta2020": "MN0102", "hydrant_count": 433, "area_km2": 1.26, "hydrants_per_km2": 343.2 }, "geometry": { "type": "Point", "coordinates": [ -74.006105271079463, 40.71778365 ] } },
{ "type": "Feature", "properties": { "ntaname": "West Village", "boroname": "Manhattan", "ntaabbrev": "WstVlg", "nta2020": "MN0203", "hydrant_count": 447, "area_km2": 1.34, "hydrants_per_km2": 333.7 }, "geometry": { "type": "Point", "coordinates": [ -74.004496128291095, 40.735377 ] } },
{ "type": "Feature", "properties": { "ntaname": "Financial District-Battery Park City", "boroname": "Manhattan", "ntaabbrev": "FiDi", "nta2020": "MN0101", "hydrant_count": 570, "area_km2": 1.79, "hydrants_per_km2": 319.1 }, "geometry": { "type": "Point", "coordinates": [ -74.009671919734572, 40.70932055 ] } },
{ "type": "Feature", "properties": { "ntaname": "Greenwich Village", "boroname": "Manhattan", "ntaabbrev": "GrnwchVlg", "nta2020": "MN0202", "hydrant_count": 304, "area_km2": 0.99, "hydrants_per_km2": 308.6 }, "geometry": { "type": "Point", "coordinates": [ -73.996006445438837, 40.73082345 ] } },
{ "type": "Feature", "properties": { "ntaname": "Upper East Side-Carnegie Hill", "boroname": "Manhattan", "ntaabbrev": "UES_CrngHl", "nta2020": "MN0802", "hydrant_count": 565, "area_km2": 1.86, "hydrants_per_km2": 303.1 }, "geometry": { "type": "Point", "coordinates": [ -73.961203853997915, 40.77468675 ] } },
{ "type": "Feature", "properties": { "ntaname": "East Village", "boroname": "Manhattan", "ntaabbrev": "EstVlg", "nta2020": "MN0303", "hydrant_count": 522, "area_km2": 1.76, "hydrants_per_km2": 296.0 }, "geometry": { "type": "Point", "coordinates": [ -73.981700289043033, 40.7265104 ] } },
{ "type": "Feature", "properties": { "ntaname": "Midtown-Times Square", "boroname": "Manhattan", "ntaabbrev": "Mdtwn_TmSq", "nta2020": "MN0502", "hydrant_count": 669, "area_km2": 2.28, "hydrants_per_km2": 293.3 }, "geometry": { "type": "Point", "coordinates": [ -73.981410787920311, 40.7578575 ] } },
{ "type": "Feature", "properties": { "ntaname": "Chinatown-Two Bridges", "boroname": "Manhattan", "ntaabbrev": "Chntwn", "nta2020": "MN0301", "hydrant_count": 310, "area_km2": 1.07, "hydrants_per_km2": 289.1 }, "geometry": { "type": "Point", "coordinates": [ -73.992996627559862, 40.7131705 ] } },
{ "type": "Feature", "properties": { "ntaname": "Harlem (South)", "boroname": "Manhattan", "ntaabbrev": "Hrlm_S", "nta2020": "MN1001", "hydrant_count": 378, "area_km2": 1.34, "hydrants_per_km2": 282.0 }, "geometry": { "type": "Point", "coordinates": [ -73.952118338113294, 40.8041516 ] } },
{ "type": "Feature", "properties": { "ntaname": "Upper East Side-Yorkville", "boroname": "Manhattan", "ntaabbrev": "UES_Yrkvl", "nta2020": "MN0803", "hydrant_count": 349, "area_km2": 1.27, "hydrants_per_km2": 275.3 }, "geometry": { "type": "Point", "coordinates": [ -73.948687563198973, 40.7776231 ] } },
{ "type": "Feature", "properties": { "ntaname": "Midtown South-Flatiron-Union Square", "boroname": "Manhattan", "ntaabbrev": "MdtwnSth", "nta2020": "MN0501", "hydrant_count": 378, "area_km2": 1.38, "hydrants_per_km2": 273.5 }, "geometry": { "type": "Point", "coordinates": [ -73.988439060183339, 40.74311735 ] } },
{ "type": "Feature", "properties": { "ntaname": "East Midtown-Turtle Bay", "boroname": "Manhattan", "ntaabbrev": "EstMdtwn", "nta2020": "MN0604", "hydrant_count": 333, "area_km2": 1.22, "hydrants_per_km2": 272.8 }, "geometry": { "type": "Point", "coordinates": [ -73.967401306718699, 40.75641285 ] } },
{ "type": "Feature", "properties": { "ntaname": "Lower East Side", "boroname": "Manhattan", "ntaabbrev": "LES", "nta2020": "MN0302", "hydrant_count": 416, "area_km2": 1.53, "hydrants_per_km2": 271.8 }, "geometry": { "type": "Point", "coordinates": [ -73.981875526777117, 40.7168403 ] } },
{ "type": "Feature", "properties": { "ntaname": "Bushwick (West)", "boroname": "Brooklyn", "ntaabbrev": "Bshwck_W", "nta2020": "BK0401", "hydrant_count": 577, "area_km2": 2.15, "hydrants_per_km2": 268.5 }, "geometry": { "type": "Point", "coordinates": [ -73.926063836716736, 40.70110045 ] } },
{ "type": "Feature", "properties": { "ntaname": "Mount Hope", "boroname": "Bronx", "ntaabbrev": "MtHp", "nta2020": "BX0502", "hydrant_count": 316, "area_km2": 1.18, "hydrants_per_km2": 268.2 }, "geometry": { "type": "Point", "coordinates": [ -73.903759748087964, 40.851007 ] } },
{ "type": "Feature", "properties": { "ntaname": "Fordham Heights", "boroname": "Bronx", "ntaabbrev": "FrdhmHts", "nta2020": "BX0503", "hydrant_count": 183, "area_km2": 0.69, "hydrants_per_km2": 266.9 }, "geometry": { "type": "Point", "coordinates": [ -73.8996396727226, 40.8583702 ] } },
{ "type": "Feature", "properties": { "ntaname": "Downtown Brooklyn-DUMBO-Boerum Hill", "boroname": "Brooklyn", "ntaabbrev": "DwntwnBk", "nta2020": "BK0202", "hydrant_count": 586, "area_km2": 2.2, "hydrants_per_km2": 265.8 }, "geometry": { "type": "Point", "coordinates": [ -73.985190475482781, 40.6942519 ] } },
{ "type": "Feature", "properties": { "ntaname": "South Williamsburg", "boroname": "Brooklyn", "ntaabbrev": "SWllmsbrg", "nta2020": "BK0103", "hydrant_count": 375, "area_km2": 1.41, "hydrants_per_km2": 265.4 }, "geometry": { "type": "Point", "coordinates": [ -73.956177359673347, 40.70326445 ] } },
{ "type": "Feature", "properties": { "ntaname": "Murray Hill-Kips Bay", "boroname": "Manhattan", "ntaabbrev": "MryHl_KpBy", "nta2020": "MN0603", "hydrant_count": 385, "area_km2": 1.47, "hydrants_per_km2": 262.8 }, "geometry": { "type": "Point", "coordinates": [ -73.977709013223631, 40.74343715 ] } },
{ "type": "Feature", "properties": { "ntaname": "Williamsburg", "boroname": "Brooklyn", "ntaabbrev": "Wllmsbrg", "nta2020": "BK0102", "hydrant_count": 704, "area_km2": 2.68, "hydrants_per_km2": 262.6 }, "geometry": { "type": "Point", "coordinates": [ -73.959937631961509, 40.7153505 ] } },
{ "type": "Feature", "properties": { "ntaname": "Brooklyn Heights", "boroname": "Brooklyn", "ntaabbrev": "BkHts", "nta2020": "BK0201", "hydrant_count": 243, "area_km2": 0.93, "hydrants_per_km2": 262.0 }, "geometry": { "type": "Point", "coordinates": [ -73.995346568883861, 40.69612475 ] } },
{ "type": "Feature", "properties": { "ntaname": "Mount Eden-Claremont (West)", "boroname": "Bronx", "ntaabbrev": "MtEdn", "nta2020": "BX0403", "hydrant_count": 330, "area_km2": 1.26, "hydrants_per_km2": 261.0 }, "geometry": { "type": "Point", "coordinates": [ -73.915154311146011, 40.83954165 ] } },
{ "type": "Feature", "properties": { "ntaname": "East Harlem (South)", "boroname": "Manhattan", "ntaabbrev": "EstHrlm_S", "nta2020": "MN1101", "hydrant_count": 400, "area_km2": 1.55, "hydrants_per_km2": 258.5 }, "geometry": { "type": "Point", "coordinates": [ -73.945308218588281, 40.7901695 ] } },
{ "type": "Feature", "properties": { "ntaname": "Ocean Hill", "boroname": "Brooklyn", "ntaabbrev": "OcnHl", "nta2020": "BK1601", "hydrant_count": 481, "area_km2": 1.87, "hydrants_per_km2": 257.7 }, "geometry": { "type": "Point", "coordinates": [ -73.911368609557556, 40.67740775 ] } },
{ "type": "Feature", "properties": { "ntaname": "Hell's Kitchen", "boroname": "Manhattan", "ntaabbrev": "HllsKtchn", "nta2020": "MN0402", "hydrant_count": 436, "area_km2": 1.71, "hydrants_per_km2": 255.3 }, "geometry": { "type": "Point", "coordinates": [ -73.992059208372027, 40.76402865 ] } },
{ "type": "Feature", "properties": { "ntaname": "Chelsea-Hudson Yards", "boroname": "Manhattan", "ntaabbrev": "Chls_HdsYd", "nta2020": "MN0401", "hydrant_count": 698, "area_km2": 2.76, "hydrants_per_km2": 253.2 }, "geometry": { "type": "Point", "coordinates": [ -74.002075111153459, 40.75013925 ] } },
{ "type": "Feature", "properties": { "ntaname": "Upper West Side (Central)", "boroname": "Manhattan", "ntaabbrev": "UWS_C", "nta2020": "MN0702", "hydrant_count": 596, "area_km2": 2.36, "hydrants_per_km2": 252.5 }, "geometry": { "type": "Point", "coordinates": [ -73.975571907296754, 40.787888 ] } },
{ "type": "Feature", "properties": { "ntaname": "East New York (North)", "boroname": "Brooklyn", "ntaabbrev": "ENY_N", "nta2020": "BK0502", "hydrant_count": 654, "area_km2": 2.59, "hydrants_per_km2": 252.3 }, "geometry": { "type": "Point", "coordinates": [ -73.888800463552585, 40.67291435 ] } },
{ "type": "Feature", "properties": { "ntaname": "Longwood", "boroname": "Bronx", "ntaabbrev": "Lngwd", "nta2020": "BX0202", "hydrant_count": 357, "area_km2": 1.43, "hydrants_per_km2": 249.6 }, "geometry": { "type": "Point", "coordinates": [ -73.898335592216043, 40.81900005 ] } },
{ "type": "Feature", "properties": { "ntaname": "Upper West Side-Lincoln Square", "boroname": "Manhattan", "ntaabbrev": "UWS_LclnSq", "nta2020": "MN0701", "hydrant_count": 366, "area_km2": 1.47, "hydrants_per_km2": 249.4 }, "geometry": { "type": "Point", "coordinates": [ -73.985015214405081, 40.77459505 ] } },
{ "type": "Feature", "properties": { "ntaname": "Park Slope", "boroname": "Brooklyn", "ntaabbrev": "PkSlp", "nta2020": "BK0602", "hydrant_count": 593, "area_km2": 2.4, "hydrants_per_km2": 247.1 }, "geometry": { "type": "Point", "coordinates": [ -73.977658991668108, 40.6730613 ] } },
{ "type": "Feature", "properties": { "ntaname": "Upper West Side-Manhattan Valley", "boroname": "Manhattan", "ntaabbrev": "UWS_MnVly", "nta2020": "MN0703", "hydrant_count": 302, "area_km2": 1.23, "hydrants_per_km2": 246.3 }, "geometry": { "type": "Point", "coordinates": [ -73.967680445331808, 40.7989054 ] } },
{ "type": "Feature", "properties": { "ntaname": "Washington Heights (South)", "boroname": "Manhattan", "ntaabbrev": "WshHts_S", "nta2020": "MN1201", "hydrant_count": 480, "area_km2": 1.95, "hydrants_per_km2": 245.7 }, "geometry": { "type": "Point", "coordinates": [ -73.941672476961458, 40.840401 ] } },
{ "type": "Feature", "properties": { "ntaname": "Tremont", "boroname": "Bronx", "ntaabbrev": "Trmnt", "nta2020": "BX0602", "hydrant_count": 361, "area_km2": 1.47, "hydrants_per_km2": 245.5 }, "geometry": { "type": "Point", "coordinates": [ -73.891848498151703, 40.84687685 ] } },
{ "type": "Feature", "properties": { "ntaname": "Morrisania", "boroname": "Bronx", "ntaabbrev": "Mrrsnia", "nta2020": "BX0301", "hydrant_count": 311, "area_km2": 1.28, "hydrants_per_km2": 242.4 }, "geometry": { "type": "Point", "coordinates": [ -73.904421395377113, 40.8279882 ] } },
{ "type": "Feature", "properties": { "ntaname": "Claremont Village-Claremont (East)", "boroname": "Bronx", "ntaabbrev": "ClrmntVlg", "nta2020": "BX0302", "hydrant_count": 225, "area_km2": 0.93, "hydrants_per_km2": 242.2 }, "geometry": { "type": "Point", "coordinates": [ -73.903630714372866, 40.8369972 ] } },
{ "type": "Feature", "properties": { "ntaname": "East Harlem (North)", "boroname": "Manhattan", "ntaabbrev": "EstHrlm_N", "nta2020": "MN1102", "hydrant_count": 583, "area_km2": 2.43, "hydrants_per_km2": 240.3 }, "geometry": { "type": "Point", "coordinates": [ -73.938338348245068, 40.8055709 ] } },
{ "type": "Feature", "properties": { "ntaname": "Melrose", "boroname": "Bronx", "ntaabbrev": "Mlrs", "nta2020": "BX0102", "hydrant_count": 383, "area_km2": 1.6, "hydrants_per_km2": 238.7 }, "geometry": { "type": "Point", "coordinates": [ -73.913585082541658, 40.81825895 ] } },
{ "type": "Feature", "properties": { "ntaname": "Harlem (North)", "boroname": "Manhattan", "ntaabbrev": "Hrlm_N", "nta2020": "MN1002", "hydrant_count": 524, "area_km2": 2.21, "hydrants_per_km2": 237.1 }, "geometry": { "type": "Point", "coordinates": [ -73.939261196798668, 40.82162695 ] } },
{ "type": "Feature", "properties": { "ntaname": "Cypress Hills", "boroname": "Brooklyn", "ntaabbrev": "CyprssHls", "nta2020": "BK0501", "hydrant_count": 536, "area_km2": 2.26, "hydrants_per_km2": 236.7 }, "geometry": { "type": "Point", "coordinates": [ -73.876347014732403, 40.68342025 ] } },
{ "type": "Feature", "properties": { "ntaname": "Bushwick (East)", "boroname": "Brooklyn", "ntaabbrev": "Bshwck_E", "nta2020": "BK0402", "hydrant_count": 612, "area_km2": 2.6, "hydrants_per_km2": 235.8 }, "geometry": { "type": "Point", "coordinates": [ -73.913085884512427, 40.69033175 ] } },
{ "type": "Feature", "properties": { "ntaname": "Borough Park", "boroname": "Brooklyn", "ntaabbrev": "BoroPk", "nta2020": "BK1202", "hydrant_count": 886, "area_km2": 3.76, "hydrants_per_km2": 235.6 }, "geometry": { "type": "Point", "coordinates": [ -73.990550144558597, 40.63374175 ] } },
{ "type": "Feature", "properties": { "ntaname": "Woodhaven", "boroname": "Queens", "ntaabbrev": "Wdhvn", "nta2020": "QN0905", "hydrant_count": 516, "area_km2": 2.2, "hydrants_per_km2": 234.1 }, "geometry": { "type": "Point", "coordinates": [ -73.857243005195272, 40.6918396 ] } },
{ "type": "Feature", "properties": { "ntaname": "Dyker Heights", "boroname": "Brooklyn", "ntaabbrev": "DykrHts", "nta2020": "BK1002", "hydrant_count": 624, "area_km2": 2.71, "hydrants_per_km2": 230.7 }, "geometry": { "type": "Point", "coordinates": [ -74.009196091953228, 40.62439695 ] } },
{ "type": "Feature", "properties": { "ntaname": "Crotona Park East", "boroname": "Bronx", "ntaabbrev": "CrtnaPkEst", "nta2020": "BX0303", "hydrant_count": 337, "area_km2": 1.48, "hydrants_per_km2": 227.0 }, "geometry": { "type": "Point", "coordinates": [ -73.889780300387841, 40.8312928 ] } },
{ "type": "Feature", "properties": { "ntaname": "Fort Greene", "boroname": "Brooklyn", "ntaabbrev": "FtGrn", "nta2020": "BK0203", "hydrant_count": 369, "area_km2": 1.63, "hydrants_per_km2": 226.5 }, "geometry": { "type": "Point", "coordinates": [ -73.975544177267651, 40.6906589 ] } },
{ "type": "Feature", "properties": { "ntaname": "Upper East Side-Lenox Hill-Roosevelt Island", "boroname": "Manhattan", "ntaabbrev": "UES_LnxHl", "nta2020": "MN0801", "hydrant_count": 446, "area_km2": 2.0, "hydrants_per_km2": 223.3 }, "geometry": { "type": "Point", "coordinates": [ -73.957054911709861, 40.76614595 ] } },
{ "type": "Feature", "properties": { "ntaname": "Ozone Park (North)", "boroname": "Queens", "ntaabbrev": "OznPk_N", "nta2020": "QN0904", "hydrant_count": 371, "area_km2": 1.68, "hydrants_per_km2": 220.8 }, "geometry": { "type": "Point", "coordinates": [ -73.847513293014089, 40.6853024 ] } },
{ "type": "Feature", "properties": { "ntaname": "Hamilton Heights-Sugar Hill", "boroname": "Manhattan", "ntaabbrev": "HmltnHts", "nta2020": "MN0903", "hydrant_count": 325, "area_km2": 1.48, "hydrants_per_km2": 218.9 }, "geometry": { "type": "Point", "coordinates": [ -73.947367439682807, 40.827535 ] } },
{ "type": "Feature", "properties": { "ntaname": "Gravesend (East)-Homecrest", "boroname": "Brooklyn", "ntaabbrev": "Grvsnd_E", "nta2020": "BK1501", "hydrant_count": 708, "area_km2": 3.24, "hydrants_per_km2": 218.5 }, "geometry": { "type": "Point", "coordinates": [ -73.965198703664157, 40.6002045 ] } },
{ "type": "Feature", "properties": { "ntaname": "Midwood", "boroname": "Brooklyn", "ntaabbrev": "Mdwd", "nta2020": "BK1403", "hydrant_count": 652, "area_km2": 2.99, "hydrants_per_km2": 217.8 }, "geometry": { "type": "Point", "coordinates": [ -73.954619176935978, 40.62104415 ] } },
{ "type": "Feature", "properties": { "ntaname": "Bensonhurst", "boroname": "Brooklyn", "ntaabbrev": "Bnsnhrst", "nta2020": "BK1101", "hydrant_count": 983, "area_km2": 4.52, "hydrants_per_km2": 217.6 }, "geometry": { "type": "Point", "coordinates": [ -73.99270232976528, 40.61329875 ] } },
{ "type": "Feature", "properties": { "ntaname": "Brownsville", "boroname": "Brooklyn", "ntaabbrev": "Brwnsvl", "nta2020": "BK1602", "hydrant_count": 621, "area_km2": 2.86, "hydrants_per_km2": 217.1 }, "geometry": { "type": "Point", "coordinates": [ -73.909727756132497, 40.66380195 ] } },
{ "type": "Feature", "properties": { "ntaname": "Crown Heights (South)", "boroname": "Brooklyn", "ntaabbrev": "CrwnHts_S", "nta2020": "BK0901", "hydrant_count": 401, "area_km2": 1.86, "hydrants_per_km2": 215.2 }, "geometry": { "type": "Point", "coordinates": [ -73.945105335882346, 40.6672694 ] } },
{ "type": "Feature", "properties": { "ntaname": "Windsor Terrace-South Slope", "boroname": "Brooklyn", "ntaabbrev": "WndsrTr", "nta2020": "BK0701", "hydrant_count": 305, "area_km2": 1.42, "hydrants_per_km2": 214.4 }, "geometry": { "type": "Point", "coordinates": [ -73.979297632099218, 40.65696925 ] } },
{ "type": "Feature", "properties": { "ntaname": "Madison", "boroname": "Brooklyn", "ntaabbrev": "Mdsn", "nta2020": "BK1502", "hydrant_count": 545, "area_km2": 2.54, "hydrants_per_km2": 214.3 }, "geometry": { "type": "Point", "coordinates": [ -73.948473401743797, 40.6065534 ] } },
{ "type": "Feature", "properties": { "ntaname": "East Flatbush-Remsen Village", "boroname": "Brooklyn", "ntaabbrev": "EFb_RmsnVl", "nta2020": "BK1704", "hydrant_count": 365, "area_km2": 1.71, "hydrants_per_km2": 213.6 }, "geometry": { "type": "Point", "coordinates": [ -73.917728350845266, 40.6555376 ] } },
{ "type": "Feature", "properties": { "ntaname": "Prospect Heights", "boroname": "Brooklyn", "ntaabbrev": "PrspctHts", "nta2020": "BK0801", "hydrant_count": 204, "area_km2": 0.96, "hydrants_per_km2": 213.0 }, "geometry": { "type": "Point", "coordinates": [ -73.968267359579329, 40.6771823 ] } },
{ "type": "Feature", "properties": { "ntaname": "Bedford-Stuyvesant (West)", "boroname": "Brooklyn", "ntaabbrev": "BdSty_W", "nta2020": "BK0301", "hydrant_count": 722, "area_km2": 3.43, "hydrants_per_km2": 210.6 }, "geometry": { "type": "Point", "coordinates": [ -73.951105291830871, 40.6891131 ] } },
{ "type": "Feature", "properties": { "ntaname": "Manhattanville-West Harlem", "boroname": "Manhattan", "ntaabbrev": "Mnhttnvl", "nta2020": "MN0902", "hydrant_count": 210, "area_km2": 1.0, "hydrants_per_km2": 210.6 }, "geometry": { "type": "Point", "coordinates": [ -73.95458688055183, 40.81788275 ] } },
{ "type": "Feature", "properties": { "ntaname": "Bedford-Stuyvesant (East)", "boroname": "Brooklyn", "ntaabbrev": "BdSty_E", "nta2020": "BK0302", "hydrant_count": 797, "area_km2": 3.84, "hydrants_per_km2": 207.8 }, "geometry": { "type": "Point", "coordinates": [ -73.931449877343141, 40.68878465 ] } },
{ "type": "Feature", "properties": { "ntaname": "Belmont", "boroname": "Bronx", "ntaabbrev": "Blmnt", "nta2020": "BX0603", "hydrant_count": 315, "area_km2": 1.52, "hydrants_per_km2": 206.8 }, "geometry": { "type": "Point", "coordinates": [ -73.887775157099895, 40.8577895 ] } },
{ "type": "Feature", "properties": { "ntaname": "Crown Heights (North)", "boroname": "Brooklyn", "ntaabbrev": "CrwnHts_N", "nta2020": "BK0802", "hydrant_count": 680, "area_km2": 3.29, "hydrants_per_km2": 206.7 }, "geometry": { "type": "Point", "coordinates": [ -73.94138289433991, 40.67340265 ] } },
{ "type": "Feature", "properties": { "ntaname": "East Flatbush-Rugby", "boroname": "Brooklyn", "ntaabbrev": "EFb_Rgby", "nta2020": "BK1703", "hydrant_count": 520, "area_km2": 2.53, "hydrants_per_km2": 205.7 }, "geometry": { "type": "Point", "coordinates": [ -73.931319297354179, 40.65171985 ] } },
{ "type": "Feature", "properties": { "ntaname": "Westchester Square", "boroname": "Bronx", "ntaabbrev": "WstchstrSq", "nta2020": "BX1001", "hydrant_count": 293, "area_km2": 1.43, "hydrants_per_km2": 205.0 }, "geometry": { "type": "Point", "coordinates": [ -73.84653260070948, 40.8393653 ] } },
{ "type": "Feature", "properties": { "ntaname": "Greenpoint", "boroname": "Brooklyn", "ntaabbrev": "Grnpt", "nta2020": "BK0101", "hydrant_count": 666, "area_km2": 3.28, "hydrants_per_km2": 203.0 }, "geometry": { "type": "Point", "coordinates": [ -73.948447147920177, 40.72881735 ] } },
{ "type": "Feature", "properties": { "ntaname": "Flatbush (West)-Ditmas Park-Parkville", "boroname": "Brooklyn", "ntaabbrev": "Fltbsh_W", "nta2020": "BK1402", "hydrant_count": 431, "area_km2": 2.13, "hydrants_per_km2": 202.5 }, "geometry": { "type": "Point", "coordinates": [ -73.963666675864204, 40.6383925 ] } },
{ "type": "Feature", "properties": { "ntaname": "Flatbush", "boroname": "Brooklyn", "ntaabbrev": "Fltbsh", "nta2020": "BK1401", "hydrant_count": 451, "area_km2": 2.23, "hydrants_per_km2": 202.1 }, "geometry": { "type": "Point", "coordinates": [ -73.959067488475796, 40.64224875 ] } },
{ "type": "Feature", "properties": { "ntaname": "Sheepshead Bay-Manhattan Beach-Gerritsen Beach", "boroname": "Brooklyn", "ntaabbrev": "ShpshdBy", "nta2020": "BK1503", "hydrant_count": 1187, "area_km2": 5.89, "hydrants_per_km2": 201.6 }, "geometry": { "type": "Point", "coordinates": [ -73.943356209220326, 40.5884682 ] } },
{ "type": "Feature", "properties": { "ntaname": "Sunset Park (East)-Borough Park (West)", "boroname": "Brooklyn", "ntaabbrev": "SnstPk_E", "nta2020": "BK1201", "hydrant_count": 219, "area_km2": 1.09, "hydrants_per_km2": 200.6 }, "geometry": { "type": "Point", "coordinates": [ -73.999181973302669, 40.64068535 ] } },
{ "type": "Feature", "properties": { "ntaname": "East Flatbush-Erasmus", "boroname": "Brooklyn", "ntaabbrev": "EFb_Ersms", "nta2020": "BK1701", "hydrant_count": 368, "area_km2": 1.84, "hydrants_per_km2": 200.4 }, "geometry": { "type": "Point", "coordinates": [ -73.950764249142068, 40.64730905 ] } },
{ "type": "Feature", "properties": { "ntaname": "Flatlands", "boroname": "Brooklyn", "ntaabbrev": "Fltlnds", "nta2020": "BK1801", "hydrant_count": 1010, "area_km2": 5.05, "hydrants_per_km2": 200.1 }, "geometry": { "type": "Point", "coordinates": [ -73.932543240982682, 40.6273891 ] } },
{ "type": "Feature", "properties": { "ntaname": "Sunset Park (Central)", "boroname": "Brooklyn", "ntaabbrev": "SnstPk_C", "nta2020": "BK0703", "hydrant_count": 348, "area_km2": 1.74, "hydrants_per_km2": 199.7 }, "geometry": { "type": "Point", "coordinates": [ -74.007595880037101, 40.64255195 ] } },
{ "type": "Feature", "properties": { "ntaname": "Concourse-Concourse Village", "boroname": "Bronx", "ntaabbrev": "Cncrs", "nta2020": "BX0401", "hydrant_count": 489, "area_km2": 2.46, "hydrants_per_km2": 198.6 }, "geometry": { "type": "Point", "coordinates": [ -73.924337755774417, 40.8254483 ] } },
{ "type": "Feature", "properties": { "ntaname": "Wakefield-Woodlawn", "boroname": "Bronx", "ntaabbrev": "Wkfld_Wdln", "nta2020": "BX1203", "hydrant_count": 731, "area_km2": 3.68, "hydrants_per_km2": 198.5 }, "geometry": { "type": "Point", "coordinates": [ -73.85684174738708, 40.8986889 ] } },
{ "type": "Feature", "properties": { "ntaname": "Gravesend (West)", "boroname": "Brooklyn", "ntaabbrev": "Grvsnd_W", "nta2020": "BK1103", "hydrant_count": 622, "area_km2": 3.14, "hydrants_per_km2": 197.9 }, "geometry": { "type": "Point", "coordinates": [ -73.984519469602333, 40.59860175 ] } },
{ "type": "Feature", "properties": { "ntaname": "East Flatbush-Farragut", "boroname": "Brooklyn", "ntaabbrev": "EFb_Frrgt", "nta2020": "BK1702", "hydrant_count": 439, "area_km2": 2.24, "hydrants_per_km2": 195.9 }, "geometry": { "type": "Point", "coordinates": [ -73.937097177425301, 40.63952245 ] } },
{ "type": "Feature", "properties": { "ntaname": "Clinton Hill", "boroname": "Brooklyn", "ntaabbrev": "ClntnHl", "nta2020": "BK0204", "hydrant_count": 265, "area_km2": 1.35, "hydrants_per_km2": 195.8 }, "geometry": { "type": "Point", "coordinates": [ -73.965110142050634, 40.68940635 ] } },
{ "type": "Feature", "properties": { "ntaname": "East Williamsburg", "boroname": "Brooklyn", "ntaabbrev": "EWllmsbrg", "nta2020": "BK0104", "hydrant_count": 951, "area_km2": 4.86, "hydrants_per_km2": 195.8 }, "geometry": { "type": "Point", "coordinates": [ -73.94233580536995, 40.7144615 ] } },
{ "type": "Feature", "properties": { "ntaname": "East New York-New Lots", "boroname": "Brooklyn", "ntaabbrev": "ENY_NwLts", "nta2020": "BK0503", "hydrant_count": 842, "area_km2": 4.32, "hydrants_per_km2": 195.1 }, "geometry": { "type": "Point", "coordinates": [ -73.885591721247778, 40.6588842 ] } },
{ "type": "Feature", "properties": { "ntaname": "Elmhurst", "boroname": "Queens", "ntaabbrev": "Elmhrst", "nta2020": "QN0401", "hydrant_count": 757, "area_km2": 3.91, "hydrants_per_km2": 193.5 }, "geometry": { "type": "Point", "coordinates": [ -73.876964410340008, 40.7385186 ] } },
{ "type": "Feature", "properties": { "ntaname": "Corona", "boroname": "Queens", "ntaabbrev": "Crna", "nta2020": "QN0402", "hydrant_count": 432, "area_km2": 2.23, "hydrants_per_km2": 193.5 }, "geometry": { "type": "Point", "coordinates": [ -73.859507660274232, 40.7434046 ] } },
{ "type": "Feature", "properties": { "ntaname": "Pelham Parkway-Van Nest", "boroname": "Bronx", "ntaabbrev": "PlhmPkwy", "nta2020": "BX1101", "hydrant_count": 280, "area_km2": 1.45, "hydrants_per_km2": 193.3 }, "geometry": { "type": "Point", "coordinates": [ -73.865260919822077, 40.8487342 ] } },
{ "type": "Feature", "properties": { "ntaname": "Brighton Beach", "boroname": "Brooklyn", "ntaabbrev": "BrghtnBch", "nta2020": "BK1303", "hydrant_count": 243, "area_km2": 1.26, "hydrants_per_km2": 192.8 }, "geometry": { "type": "Point", "coordinates": [ -73.960601032284202, 40.57911155 ] } },
{ "type": "Feature", "properties": { "ntaname": "Kingsbridge Heights-Van Cortlandt Village", "boroname": "Bronx", "ntaabbrev": "KngbrdgHts", "nta2020": "BX0801", "hydrant_count": 196, "area_km2": 1.02, "hydrants_per_km2": 192.3 }, "geometry": { "type": "Point", "coordinates": [ -73.901936241999692, 40.8768721 ] } },
{ "type": "Feature", "properties": { "ntaname": "Bay Ridge", "boroname": "Brooklyn", "ntaabbrev": "ByRdg", "nta2020": "BK1001", "hydrant_count": 1096, "area_km2": 5.73, "hydrants_per_km2": 191.4 }, "geometry": { "type": "Point", "coordinates": [ -74.029502454784762, 40.62740715 ] } },
{ "type": "Feature", "properties": { "ntaname": "Allerton", "boroname": "Bronx", "ntaabbrev": "Allrtn", "nta2020": "BX1104", "hydrant_count": 280, "area_km2": 1.46, "hydrants_per_km2": 191.3 }, "geometry": { "type": "Point", "coordinates": [ -73.864612250371749, 40.8644762 ] } },
{ "type": "Feature", "properties": { "ntaname": "Kensington", "boroname": "Brooklyn", "ntaabbrev": "Knsngtn", "nta2020": "BK1203", "hydrant_count": 309, "area_km2": 1.62, "hydrants_per_km2": 190.4 }, "geometry": { "type": "Point", "coordinates": [ -73.974473415430168, 40.639983 ] } },
{ "type": "Feature", "properties": { "ntaname": "Prospect Lefferts Gardens-Wingate", "boroname": "Brooklyn", "ntaabbrev": "PLG_Wngt", "nta2020": "BK0902", "hydrant_count": 425, "area_km2": 2.23, "hydrants_per_km2": 190.3 }, "geometry": { "type": "Point", "coordinates": [ -73.948374746498843, 40.65935555 ] } },
{ "type": "Feature", "properties": { "ntaname": "Inwood", "boroname": "Manhattan", "ntaabbrev": "Inwd", "nta2020": "MN1203", "hydrant_count": 255, "area_km2": 1.34, "hydrants_per_km2": 190.1 }, "geometry": { "type": "Point", "coordinates": [ -73.920658876953809, 40.8644862 ] } },
{ "type": "Feature", "properties": { "ntaname": "Mapleton-Midwood (West)", "boroname": "Brooklyn", "ntaabbrev": "Mpltn", "nta2020": "BK1204", "hydrant_count": 549, "area_km2": 2.91, "hydrants_per_km2": 188.5 }, "geometry": { "type": "Point", "coordinates": [ -73.974616677942066, 40.61890365 ] } },
{ "type": "Feature", "properties": { "ntaname": "Jackson Heights", "boroname": "Queens", "ntaabbrev": "JcksnHts", "nta2020": "QN0301", "hydrant_count": 688, "area_km2": 3.65, "hydrants_per_km2": 188.4 }, "geometry": { "type": "Point", "coordinates": [ -73.887428516922967, 40.7569129 ] } },
{ "type": "Feature", "properties": { "ntaname": "Carroll Gardens-Cobble Hill-Gowanus-Red Hook", "boroname": "Brooklyn", "ntaabbrev": "CrrllGrdns", "nta2020": "BK0601", "hydrant_count": 1064, "area_km2": 5.65, "hydrants_per_km2": 188.3 }, "geometry": { "type": "Point", "coordinates": [ -74.000252622075536, 40.678615 ] } },
{ "type": "Feature", "properties": { "ntaname": "North Corona", "boroname": "Queens", "ntaabbrev": "NrthCrna", "nta2020": "QN0303", "hydrant_count": 244, "area_km2": 1.3, "hydrants_per_km2": 188.1 }, "geometry": { "type": "Point", "coordinates": [ -73.862323452112292, 40.75363355 ] } },
{ "type": "Feature", "properties": { "ntaname": "Highbridge", "boroname": "Bronx", "ntaabbrev": "Hghbrdg", "nta2020": "BX0402", "hydrant_count": 226, "area_km2": 1.21, "hydrants_per_km2": 186.4 }, "geometry": { "type": "Point", "coordinates": [ -73.927391484375093, 40.8368025 ] } },
{ "type": "Feature", "properties": { "ntaname": "Mott Haven-Port Morris", "boroname": "Bronx", "ntaabbrev": "MttHvn", "nta2020": "BX0101", "hydrant_count": 708, "area_km2": 3.81, "hydrants_per_km2": 186.0 }, "geometry": { "type": "Point", "coordinates": [ -73.91706021396331, 40.807449 ] } },
{ "type": "Feature", "properties": { "ntaname": "Glendale", "boroname": "Queens", "ntaabbrev": "Glndl", "nta2020": "QN0503", "hydrant_count": 518, "area_km2": 2.79, "hydrants_per_km2": 185.8 }, "geometry": { "type": "Point", "coordinates": [ -73.882010535055258, 40.70266855 ] } },
{ "type": "Feature", "properties": { "ntaname": "Woodside", "boroname": "Queens", "ntaabbrev": "Wdsd", "nta2020": "QN0203", "hydrant_count": 566, "area_km2": 3.06, "hydrants_per_km2": 184.9 }, "geometry": { "type": "Point", "coordinates": [ -73.902168699262603, 40.74367175 ] } },
{ "type": "Feature", "properties": { "ntaname": "Norwood", "boroname": "Bronx", "ntaabbrev": "Nrwd", "nta2020": "BX0703", "hydrant_count": 270, "area_km2": 1.46, "hydrants_per_km2": 184.9 }, "geometry": { "type": "Point", "coordinates": [ -73.877757667317212, 40.8768598 ] } },
{ "type": "Feature", "properties": { "ntaname": "Tompkinsville-Stapleton-Clifton-Fox Hills", "boroname": "Staten Island", "ntaabbrev": "Tkvl_Stptn", "nta2020": "SI0102", "hydrant_count": 413, "area_km2": 2.25, "hydrants_per_km2": 183.4 }, "geometry": { "type": "Point", "coordinates": [ -74.079759511999811, 40.6258046 ] } },
{ "type": "Feature", "properties": { "ntaname": "Williamsbridge-Olinville", "boroname": "Bronx", "ntaabbrev": "Wllmsbrdg", "nta2020": "BX1201", "hydrant_count": 616, "area_km2": 3.37, "hydrants_per_km2": 182.9 }, "geometry": { "type": "Point", "coordinates": [ -73.860088461403961, 40.8826072 ] } },
{ "type": "Feature", "properties": { "ntaname": "University Heights (South)-Morris Heights", "boroname": "Bronx", "ntaabbrev": "UnvrsHts_S", "nta2020": "BX0501", "hydrant_count": 332, "area_km2": 1.82, "hydrants_per_km2": 182.0 }, "geometry": { "type": "Point", "coordinates": [ -73.916230583977935, 40.8519828 ] } },
{ "type": "Feature", "properties": { "ntaname": "St. George-New Brighton", "boroname": "Staten Island", "ntaabbrev": "StGrg", "nta2020": "SI0101", "hydrant_count": 447, "area_km2": 2.46, "hydrants_per_km2": 181.5 }, "geometry": { "type": "Point", "coordinates": [ -74.086688922282733, 40.64219585 ] } },
{ "type": "Feature", "properties": { "ntaname": "West Farms", "boroname": "Bronx", "ntaabbrev": "WstFrms", "nta2020": "BX0601", "hydrant_count": 197, "area_km2": 1.09, "hydrants_per_km2": 181.2 }, "geometry": { "type": "Point", "coordinates": [ -73.880583255963813, 40.8417869 ] } },
{ "type": "Feature", "properties": { "ntaname": "Pelham Gardens", "boroname": "Bronx", "ntaabbrev": "PlhmGrdns", "nta2020": "BX1103", "hydrant_count": 506, "area_km2": 2.79, "hydrants_per_km2": 181.2 }, "geometry": { "type": "Point", "coordinates": [ -73.848034001092245, 40.86587115 ] } },
{ "type": "Feature", "properties": { "ntaname": "Ozone Park", "boroname": "Queens", "ntaabbrev": "OznPk", "nta2020": "QN1002", "hydrant_count": 422, "area_km2": 2.33, "hydrants_per_km2": 180.9 }, "geometry": { "type": "Point", "coordinates": [ -73.849371945897957, 40.67517895 ] } },
{ "type": "Feature", "properties": { "ntaname": "Pelham Bay-Country Club-City Island", "boroname": "Bronx", "ntaabbrev": "PlhmBy", "nta2020": "BX1003", "hydrant_count": 589, "area_km2": 3.28, "hydrants_per_km2": 179.5 }, "geometry": { "type": "Point", "coordinates": [ -73.820704561351036, 40.841467 ] } },
{ "type": "Feature", "properties": { "ntaname": "Bath Beach", "boroname": "Brooklyn", "ntaabbrev": "BthBch", "nta2020": "BK1102", "hydrant_count": 342, "area_km2": 1.91, "hydrants_per_km2": 179.1 }, "geometry": { "type": "Point", "coordinates": [ -74.010614645750465, 40.60397745 ] } },
{ "type": "Feature", "properties": { "ntaname": "Jamaica Hills-Briarwood", "boroname": "Queens", "ntaabbrev": "JmcaHls", "nta2020": "QN0805", "hydrant_count": 457, "area_km2": 2.57, "hydrants_per_km2": 177.9 }, "geometry": { "type": "Point", "coordinates": [ -73.807296118144109, 40.7107553 ] } },
{ "type": "Feature", "properties": { "ntaname": "Washington Heights (North)", "boroname": "Manhattan", "ntaabbrev": "WshHts_N", "nta2020": "MN1202", "hydrant_count": 409, "area_km2": 2.3, "hydrants_per_km2": 177.7 }, "geometry": { "type": "Point", "coordinates": [ -73.932824696764101, 40.85866975 ] } },
{ "type": "Feature", "properties": { "ntaname": "Astoria (Central)", "boroname": "Queens", "ntaabbrev": "Astr_C", "nta2020": "QN0103", "hydrant_count": 348, "area_km2": 1.96, "hydrants_per_km2": 177.7 }, "geometry": { "type": "Point", "coordinates": [ -73.922526065446462, 40.7643793 ] } },
{ "type": "Feature", "properties": { "ntaname": "Soundview-Bruckner-Bronx River", "boroname": "Bronx", "ntaabbrev": "Sdvw_BxRvr", "nta2020": "BX0901", "hydrant_count": 530, "area_km2": 2.99, "hydrants_per_km2": 177.1 }, "geometry": { "type": "Point", "coordinates": [ -73.873402896972209, 40.82971055 ] } },
{ "type": "Feature", "properties": { "ntaname": "Parkchester", "boroname": "Bronx", "ntaabbrev": "Pkchstr", "nta2020": "BX0904", "hydrant_count": 151, "area_km2": 0.85, "hydrants_per_km2": 177.0 }, "geometry": { "type": "Point", "coordinates": [ -73.857940456163846, 40.8373974 ] } },
{ "type": "Feature", "properties": { "ntaname": "Auburndale", "boroname": "Queens", "ntaabbrev": "Abrndl", "nta2020": "QN1101", "hydrant_count": 911, "area_km2": 5.15, "hydrants_per_km2": 176.8 }, "geometry": { "type": "Point", "coordinates": [ -73.785974904362149, 40.7570803 ] } },
{ "type": "Feature", "properties": { "ntaname": "Canarsie", "boroname": "Brooklyn", "ntaabbrev": "Cnrsie", "nta2020": "BK1803", "hydrant_count": 1155, "area_km2": 6.55, "hydrants_per_km2": 176.3 }, "geometry": { "type": "Point", "coordinates": [ -73.900349359882711, 40.64019595 ] } },
{ "type": "Feature", "properties": { "ntaname": "Bedford Park", "boroname": "Bronx", "ntaabbrev": "BdfrdPk", "nta2020": "BX0702", "hydrant_count": 400, "area_km2": 2.28, "hydrants_per_km2": 175.4 }, "geometry": { "type": "Point", "coordinates": [ -73.890665882506028, 40.8733037 ] } },
{ "type": "Feature", "properties": { "ntaname": "Long Island City-Hunters Point", "boroname": "Queens", "ntaabbrev": "LIC", "nta2020": "QN0201", "hydrant_count": 449, "area_km2": 2.56, "hydrants_per_km2": 175.1 }, "geometry": { "type": "Point", "coordinates": [ -73.948756010608889, 40.74660025 ] } },
{ "type": "Feature", "properties": { "ntaname": "Morningside Heights", "boroname": "Manhattan", "ntaabbrev": "MrngsdHts", "nta2020": "MN0901", "hydrant_count": 257, "area_km2": 1.48, "hydrants_per_km2": 173.7 }, "geometry": { "type": "Point", "coordinates": [ -73.961815461337665, 40.8095697 ] } },
{ "type": "Feature", "properties": { "ntaname": "Richmond Hill", "boroname": "Queens", "ntaabbrev": "RchmdHl", "nta2020": "QN0902", "hydrant_count": 483, "area_km2": 2.81, "hydrants_per_km2": 171.8 }, "geometry": { "type": "Point", "coordinates": [ -73.83215555435018, 40.69668645 ] } },
{ "type": "Feature", "properties": { "ntaname": "Murray Hill-Broadway Flushing", "boroname": "Queens", "ntaabbrev": "MryHl_BwyF", "nta2020": "QN0704", "hydrant_count": 896, "area_km2": 5.24, "hydrants_per_km2": 170.8 }, "geometry": { "type": "Point", "coordinates": [ -73.80890828328684, 40.7697113 ] } },
{ "type": "Feature", "properties": { "ntaname": "East Elmhurst", "boroname": "Queens", "ntaabbrev": "EstElmhrst", "nta2020": "QN0302", "hydrant_count": 456, "area_km2": 2.67, "hydrants_per_km2": 170.6 }, "geometry": { "type": "Point", "coordinates": [ -73.87411588590804, 40.76416525 ] } },
{ "type": "Feature", "properties": { "ntaname": "South Jamaica", "boroname": "Queens", "ntaabbrev": "SthJmca", "nta2020": "QN1202", "hydrant_count": 599, "area_km2": 3.52, "hydrants_per_km2": 170.3 }, "geometry": { "type": "Point", "coordinates": [ -73.791879647878275, 40.69415465 ] } },
{ "type": "Feature", "properties": { "ntaname": "Queensbridge-Ravenswood-Dutch Kills", "boroname": "Queens", "ntaabbrev": "Qnsbrdg", "nta2020": "QN0105", "hydrant_count": 436, "area_km2": 2.58, "hydrants_per_km2": 169.3 }, "geometry": { "type": "Point", "coordinates": [ -73.938633621560513, 40.76002535 ] } },
{ "type": "Feature", "properties": { "ntaname": "Morris Park", "boroname": "Bronx", "ntaabbrev": "MrrsPk", "nta2020": "BX1102", "hydrant_count": 437, "area_km2": 2.59, "hydrants_per_km2": 169.0 }, "geometry": { "type": "Point", "coordinates": [ -73.853197736799473, 40.850407 ] } },
{ "type": "Feature", "properties": { "ntaname": "Kingsbridge-Marble Hill", "boroname": "Bronx", "ntaabbrev": "Kngbrdg", "nta2020": "BX0802", "hydrant_count": 192, "area_km2": 1.14, "hydrants_per_km2": 167.8 }, "geometry": { "type": "Point", "coordinates": [ -73.905287177769893, 40.88140865 ] } },
{ "type": "Feature", "properties": { "ntaname": "Astoria (East)-Woodside (North)", "boroname": "Queens", "ntaabbrev": "Astr_E", "nta2020": "QN0104", "hydrant_count": 403, "area_km2": 2.42, "hydrants_per_km2": 166.6 }, "geometry": { "type": "Point", "coordinates": [ -73.910307923845764, 40.7604966 ] } },
{ "type": "Feature", "properties": { "ntaname": "Ridgewood", "boroname": "Queens", "ntaabbrev": "Rdgwd", "nta2020": "QN0502", "hydrant_count": 656, "area_km2": 3.95, "hydrants_per_km2": 166.0 }, "geometry": { "type": "Point", "coordinates": [ -73.902411534059439, 40.70262405 ] } },
{ "type": "Feature", "properties": { "ntaname": "Pomonok-Electchester-Hillcrest", "boroname": "Queens", "ntaabbrev": "Pmnk_Hlcst", "nta2020": "QN0802", "hydrant_count": 567, "area_km2": 3.44, "hydrants_per_km2": 165.1 }, "geometry": { "type": "Point", "coordinates": [ -73.802926888535268, 40.7275739 ] } },
{ "type": "Feature", "properties": { "ntaname": "Forest Hills", "boroname": "Queens", "ntaabbrev": "FrstHls", "nta2020": "QN0602", "hydrant_count": 888, "area_km2": 5.38, "hydrants_per_km2": 164.9 }, "geometry": { "type": "Point", "coordinates": [ -73.848008629118667, 40.72309195 ] } },
{ "type": "Feature", "properties": { "ntaname": "Middle Village", "boroname": "Queens", "ntaabbrev": "MddlVlg", "nta2020": "QN0504", "hydrant_count": 529, "area_km2": 3.25, "hydrants_per_km2": 163.0 }, "geometry": { "type": "Point", "coordinates": [ -73.879925609742614, 40.71864065 ] } },
{ "type": "Feature", "properties": { "ntaname": "New Dorp-Midland Beach", "boroname": "Staten Island", "ntaabbrev": "NwDrp_MBch", "nta2020": "SI0202", "hydrant_count": 941, "area_km2": 5.78, "hydrants_per_km2": 162.9 }, "geometry": { "type": "Point", "coordinates": [ -74.113530303345613, 40.57246 ] } },
{ "type": "Feature", "properties": { "ntaname": "Marine Park-Mill Basin-Bergen Beach", "boroname": "Brooklyn", "ntaabbrev": "MrnPk_MBsn", "nta2020": "BK1802", "hydrant_count": 889, "area_km2": 5.47, "hydrants_per_km2": 162.5 }, "geometry": { "type": "Point", "coordinates": [ -73.907997140093414, 40.617811 ] } },
{ "type": "Feature", "properties": { "ntaname": "Hollis", "boroname": "Queens", "ntaabbrev": "Hlls", "nta2020": "QN1206", "hydrant_count": 369, "area_km2": 2.27, "hydrants_per_km2": 162.3 }, "geometry": { "type": "Point", "coordinates": [ -73.764375980330669, 40.7120005 ] } },
{ "type": "Feature", "properties": { "ntaname": "University Heights (North)-Fordham", "boroname": "Bronx", "ntaabbrev": "UnvrsHts_N", "nta2020": "BX0701", "hydrant_count": 275, "area_km2": 1.7, "hydrants_per_km2": 161.6 }, "geometry": { "type": "Point", "coordinates": [ -73.902190182775982, 40.86482725 ] } },
{ "type": "Feature", "properties": { "ntaname": "East New York-City Line", "boroname": "Brooklyn", "ntaabbrev": "ENY_CtyLn", "nta2020": "BK0505", "hydrant_count": 470, "area_km2": 2.93, "hydrants_per_km2": 160.5 }, "geometry": { "type": "Point", "coordinates": [ -73.865282726195346, 40.66906905 ] } },
{ "type": "Feature", "properties": { "ntaname": "Laurelton", "boroname": "Queens", "ntaabbrev": "Lrltn", "nta2020": "QN1305", "hydrant_count": 593, "area_km2": 3.7, "hydrants_per_km2": 160.2 }, "geometry": { "type": "Point", "coordinates": [ -73.744472654740918, 40.6761707 ] } },
{ "type": "Feature", "properties": { "ntaname": "Old Astoria-Hallets Point", "boroname": "Queens", "ntaabbrev": "OldAstr", "nta2020": "QN0102", "hydrant_count": 165, "area_km2": 1.03, "hydrants_per_km2": 160.1 }, "geometry": { "type": "Point", "coordinates": [ -73.930573282178017, 40.7713196 ] } },
{ "type": "Feature", "properties": { "ntaname": "Westerleigh-Castleton Corners", "boroname": "Staten Island", "ntaabbrev": "Wstrlgh", "nta2020": "SI0105", "hydrant_count": 1137, "area_km2": 7.11, "hydrants_per_km2": 159.9 }, "geometry": { "type": "Point", "coordinates": [ -74.128619457868126, 40.61941525 ] } },
{ "type": "Feature", "properties": { "ntaname": "Baisley Park", "boroname": "Queens", "ntaabbrev": "BslyPk", "nta2020": "QN1203", "hydrant_count": 712, "area_km2": 4.45, "hydrants_per_km2": 159.8 }, "geometry": { "type": "Point", "coordinates": [ -73.791387193501464, 40.67867955 ] } },
{ "type": "Feature", "properties": { "ntaname": "Sunset Park (West)", "boroname": "Brooklyn", "ntaabbrev": "SnstPk_W", "nta2020": "BK0702", "hydrant_count": 746, "area_km2": 4.68, "hydrants_per_km2": 159.4 }, "geometry": { "type": "Point", "coordinates": [ -74.008746441563531, 40.65505505 ] } },
{ "type": "Feature", "properties": { "ntaname": "Cambria Heights", "boroname": "Queens", "ntaabbrev": "CmbriaHts", "nta2020": "QN1304", "hydrant_count": 485, "area_km2": 3.07, "hydrants_per_km2": 157.8 }, "geometry": { "type": "Point", "coordinates": [ -73.735550239059847, 40.69331635 ] } },
{ "type": "Feature", "properties": { "ntaname": "Jamaica", "boroname": "Queens", "ntaabbrev": "Jmca", "nta2020": "QN1201", "hydrant_count": 685, "area_km2": 4.35, "hydrants_per_km2": 157.5 }, "geometry": { "type": "Point", "coordinates": [ -73.801039051584127, 40.7025941 ] } },
{ "type": "Feature", "properties": { "ntaname": "St. Albans", "boroname": "Queens", "ntaabbrev": "StAlbns", "nta2020": "QN1205", "hydrant_count": 1086, "area_km2": 6.9, "hydrants_per_km2": 157.4 }, "geometry": { "type": "Point", "coordinates": [ -73.762588592785804, 40.69222275 ] } },
{ "type": "Feature", "properties": { "ntaname": "Port Richmond", "boroname": "Staten Island", "ntaabbrev": "PrtRchmnd", "nta2020": "SI0106", "hydrant_count": 528, "area_km2": 3.37, "hydrants_per_km2": 156.8 }, "geometry": { "type": "Point", "coordinates": [ -74.131611185097427, 40.6330356 ] } },
{ "type": "Feature", "properties": { "ntaname": "Stuyvesant Town-Peter Cooper Village", "boroname": "Manhattan", "ntaabbrev": "StyTwn", "nta2020": "MN0601", "hydrant_count": 81, "area_km2": 0.52, "hydrants_per_km2": 156.4 }, "geometry": { "type": "Point", "coordinates": [ -73.977842685676706, 40.73172725 ] } },
{ "type": "Feature", "properties": { "ntaname": "Rego Park", "boroname": "Queens", "ntaabbrev": "RegoPk", "nta2020": "QN0601", "hydrant_count": 293, "area_km2": 1.88, "hydrants_per_km2": 156.2 }, "geometry": { "type": "Point", "coordinates": [ -73.864014109000465, 40.7236532 ] } },
{ "type": "Feature", "properties": { "ntaname": "Maspeth", "boroname": "Queens", "ntaabbrev": "Mspth", "nta2020": "QN0501", "hydrant_count": 845, "area_km2": 5.42, "hydrants_per_km2": 156.0 }, "geometry": { "type": "Point", "coordinates": [ -73.910109031614439, 40.7238368 ] } },
{ "type": "Feature", "properties": { "ntaname": "Great Kills-Eltingville", "boroname": "Staten Island", "ntaabbrev": "GrtKls_Evl", "nta2020": "SI0302", "hydrant_count": 1672, "area_km2": 10.85, "hydrants_per_km2": 154.2 }, "geometry": { "type": "Point", "coordinates": [ -74.158439626115069, 40.5491226 ] } },
{ "type": "Feature", "properties": { "ntaname": "South Richmond Hill", "boroname": "Queens", "ntaabbrev": "SthRchmdHl", "nta2020": "QN0903", "hydrant_count": 225, "area_km2": 1.47, "hydrants_per_km2": 152.8 }, "geometry": { "type": "Point", "coordinates": [ -73.82568419728797, 40.6910917 ] } },
{ "type": "Feature", "properties": { "ntaname": "Castle Hill-Unionport", "boroname": "Bronx", "ntaabbrev": "CstlHl", "nta2020": "BX0903", "hydrant_count": 466, "area_km2": 3.06, "hydrants_per_km2": 152.5 }, "geometry": { "type": "Point", "coordinates": [ -73.847859193923568, 40.823039 ] } },
{ "type": "Feature", "properties": { "ntaname": "Bayside", "boroname": "Queens", "ntaabbrev": "Bysd", "nta2020": "QN1102", "hydrant_count": 997, "area_km2": 6.54, "hydrants_per_km2": 152.4 }, "geometry": { "type": "Point", "coordinates": [ -73.768521897738495, 40.76172515 ] } },
{ "type": "Feature", "properties": { "ntaname": "Kew Gardens Hills", "boroname": "Queens", "ntaabbrev": "KwGrdnsHls", "nta2020": "QN0801", "hydrant_count": 483, "area_km2": 3.19, "hydrants_per_km2": 151.6 }, "geometry": { "type": "Point", "coordinates": [ -73.822586668378207, 40.7277249 ] } },
{ "type": "Feature", "properties": { "ntaname": "Eastchester-Edenwald-Baychester", "boroname": "Bronx", "ntaabbrev": "Estchstr", "nta2020": "BX1202", "hydrant_count": 786, "area_km2": 5.24, "hydrants_per_km2": 150.0 }, "geometry": { "type": "Point", "coordinates": [ -73.842585997679308, 40.87816385 ] } },
{ "type": "Feature", "properties": { "ntaname": "Soundview-Clason Point", "boroname": "Bronx", "ntaabbrev": "Sdvw_ClsPt", "nta2020": "BX0902", "hydrant_count": 420, "area_km2": 2.82, "hydrants_per_km2": 149.1 }, "geometry": { "type": "Point", "coordinates": [ -73.860365946239256, 40.8156765 ] } },
{ "type": "Feature", "properties": { "ntaname": "Queens Village", "boroname": "Queens", "ntaabbrev": "QnsVlg", "nta2020": "QN1303", "hydrant_count": 962, "area_km2": 6.47, "hydrants_per_km2": 148.7 }, "geometry": { "type": "Point", "coordinates": [ -73.741739629190931, 40.71550435 ] } },
{ "type": "Feature", "properties": { "ntaname": "Howard Beach-Lindenwood", "boroname": "Queens", "ntaabbrev": "HwrdBch", "nta2020": "QN1003", "hydrant_count": 724, "area_km2": 4.89, "hydrants_per_km2": 148.1 }, "geometry": { "type": "Point", "coordinates": [ -73.848904837928046, 40.6614414 ] } },
{ "type": "Feature", "properties": { "ntaname": "Gravesend (South)", "boroname": "Brooklyn", "ntaabbrev": "Grvsnd_S", "nta2020": "BK1301", "hydrant_count": 355, "area_km2": 2.4, "hydrants_per_km2": 147.9 }, "geometry": { "type": "Point", "coordinates": [ -73.977282930494226, 40.58867875 ] } },
{ "type": "Feature", "properties": { "ntaname": "Oakwood-Richmondtown", "boroname": "Staten Island", "ntaabbrev": "Okwd_Rmtwn", "nta2020": "SI0301", "hydrant_count": 768, "area_km2": 5.2, "hydrants_per_km2": 147.8 }, "geometry": { "type": "Point", "coordinates": [ -74.119591857965702, 40.5620599 ] } },
{ "type": "Feature", "properties": { "ntaname": "Sunnyside", "boroname": "Queens", "ntaabbrev": "Snnysd", "nta2020": "QN0202", "hydrant_count": 655, "area_km2": 4.43, "hydrants_per_km2": 147.8 }, "geometry": { "type": "Point", "coordinates": [ -73.930758513349502, 40.738058 ] } },
{ "type": "Feature", "properties": { "ntaname": "East Flushing", "boroname": "Queens", "ntaabbrev": "EstFlshng", "nta2020": "QN0705", "hydrant_count": 431, "area_km2": 2.94, "hydrants_per_km2": 146.5 }, "geometry": { "type": "Point", "coordinates": [ -73.806600739981207, 40.7536967 ] } },
{ "type": "Feature", "properties": { "ntaname": "Oakland Gardens-Hollis Hills", "boroname": "Queens", "ntaabbrev": "OklndGrdns", "nta2020": "QN1104", "hydrant_count": 539, "area_km2": 3.68, "hydrants_per_km2": 146.4 }, "geometry": { "type": "Point", "coordinates": [ -73.753604407238129, 40.73909965 ] } },
{ "type": "Feature", "properties": { "ntaname": "Far Rockaway-Bayswater", "boroname": "Queens", "ntaabbrev": "FrRckwy", "nta2020": "QN1401", "hydrant_count": 822, "area_km2": 5.62, "hydrants_per_km2": 146.3 }, "geometry": { "type": "Point", "coordinates": [ -73.754248875876868, 40.6025219 ] } },
{ "type": "Feature", "properties": { "ntaname": "Throgs Neck-Schuylerville", "boroname": "Bronx", "ntaabbrev": "ThrgsNck", "nta2020": "BX1002", "hydrant_count": 901, "area_km2": 6.18, "hydrants_per_km2": 145.9 }, "geometry": { "type": "Point", "coordinates": [ -73.81920413380297, 40.824661 ] } },
{ "type": "Feature", "properties": { "ntaname": "Queensboro Hill", "boroname": "Queens", "ntaabbrev": "QnsboroHl", "nta2020": "QN0706", "hydrant_count": 357, "area_km2": 2.46, "hydrants_per_km2": 145.4 }, "geometry": { "type": "Point", "coordinates": [ -73.824824058431517, 40.7443652 ] } },
{ "type": "Feature", "properties": { "ntaname": "Kew Gardens", "boroname": "Queens", "ntaabbrev": "KwGrdns", "nta2020": "QN0901", "hydrant_count": 274, "area_km2": 1.88, "hydrants_per_km2": 145.4 }, "geometry": { "type": "Point", "coordinates": [ -73.829437625993023, 40.708577 ] } },
{ "type": "Feature", "properties": { "ntaname": "Whitestone-Beechhurst", "boroname": "Queens", "ntaabbrev": "Whtstn", "nta2020": "QN0702", "hydrant_count": 702, "area_km2": 4.89, "hydrants_per_km2": 143.6 }, "geometry": { "type": "Point", "coordinates": [ -73.80692693886877, 40.78830365 ] } },
{ "type": "Feature", "properties": { "ntaname": "Rockaway Beach-Arverne-Edgemere", "boroname": "Queens", "ntaabbrev": "RckwyBch", "nta2020": "QN1402", "hydrant_count": 672, "area_km2": 4.69, "hydrants_per_km2": 143.2 }, "geometry": { "type": "Point", "coordinates": [ -73.787543025080296, 40.5922589 ] } },
{ "type": "Feature", "properties": { "ntaname": "Fresh Meadows-Utopia", "boroname": "Queens", "ntaabbrev": "FrshMdws", "nta2020": "QN0803", "hydrant_count": 435, "area_km2": 3.08, "hydrants_per_km2": 141.0 }, "geometry": { "type": "Point", "coordinates": [ -73.787789912047032, 40.73409965 ] } },
{ "type": "Feature", "properties": { "ntaname": "Glen Oaks-Floral Park-New Hyde Park", "boroname": "Queens", "ntaabbrev": "GlnOks", "nta2020": "QN1301", "hydrant_count": 593, "area_km2": 4.22, "hydrants_per_km2": 140.5 }, "geometry": { "type": "Point", "coordinates": [ -73.708965687673896, 40.74334735 ] } },
{ "type": "Feature", "properties": { "ntaname": "West New Brighton-Silver Lake-Grymes Hill", "boroname": "Staten Island", "ntaabbrev": "WstNwBrgtn", "nta2020": "SI0104", "hydrant_count": 1103, "area_km2": 7.93, "hydrants_per_km2": 139.1 }, "geometry": { "type": "Point", "coordinates": [ -74.101974481968597, 40.6272536 ] } },
{ "type": "Feature", "properties": { "ntaname": "Rosebank-Shore Acres-Park Hill", "boroname": "Staten Island", "ntaabbrev": "Rsbnk_PkHl", "nta2020": "SI0103", "hydrant_count": 455, "area_km2": 3.27, "hydrants_per_km2": 138.9 }, "geometry": { "type": "Point", "coordinates": [ -74.073570777085777, 40.6144802 ] } },
{ "type": "Feature", "properties": { "ntaname": "South Ozone Park", "boroname": "Queens", "ntaabbrev": "SthOznPk", "nta2020": "QN1001", "hydrant_count": 1048, "area_km2": 7.6, "hydrants_per_km2": 137.8 }, "geometry": { "type": "Point", "coordinates": [ -73.820693416072388, 40.6773088 ] } },
{ "type": "Feature", "properties": { "ntaname": "Flushing-Willets Point", "boroname": "Queens", "ntaabbrev": "Flshng", "nta2020": "QN0707", "hydrant_count": 491, "area_km2": 3.58, "hydrants_per_km2": 137.2 }, "geometry": { "type": "Point", "coordinates": [ -73.833511883473818, 40.76009205 ] } },
{ "type": "Feature", "properties": { "ntaname": "Grasmere-Arrochar-South Beach-Dongan Hills", "boroname": "Staten Island", "ntaabbrev": "Grsmr_SBch", "nta2020": "SI0201", "hydrant_count": 1013, "area_km2": 7.44, "hydrants_per_km2": 136.1 }, "geometry": { "type": "Point", "coordinates": [ -74.080271125099841, 40.59352015 ] } },
{ "type": "Feature", "properties": { "ntaname": "Bellerose", "boroname": "Queens", "ntaabbrev": "Bllrs", "nta2020": "QN1302", "hydrant_count": 693, "area_km2": 5.14, "hydrants_per_km2": 134.8 }, "geometry": { "type": "Point", "coordinates": [ -73.727963311117975, 40.7364531 ] } },
{ "type": "Feature", "properties": { "ntaname": "Astoria (North)-Ditmars-Steinway", "boroname": "Queens", "ntaabbrev": "Astr_N", "nta2020": "QN0101", "hydrant_count": 723, "area_km2": 5.42, "hydrants_per_km2": 133.5 }, "geometry": { "type": "Point", "coordinates": [ -73.906655751506236, 40.7782054 ] } },
{ "type": "Feature", "properties": { "ntaname": "Springfield Gardens (North)-Rochdale Village", "boroname": "Queens", "ntaabbrev": "SpfGrdns_N", "nta2020": "QN1204", "hydrant_count": 425, "area_km2": 3.2, "hydrants_per_km2": 132.7 }, "geometry": { "type": "Point", "coordinates": [ -73.773737082068763, 40.6752167 ] } },
{ "type": "Feature", "properties": { "ntaname": "Jamaica Estates-Holliswood", "boroname": "Queens", "ntaabbrev": "JmcaEstts", "nta2020": "QN0804", "hydrant_count": 486, "area_km2": 3.66, "hydrants_per_km2": 132.7 }, "geometry": { "type": "Point", "coordinates": [ -73.775530863938627, 40.7204879 ] } },
{ "type": "Feature", "properties": { "ntaname": "Douglaston-Little Neck", "boroname": "Queens", "ntaabbrev": "Dglstn", "nta2020": "QN1103", "hydrant_count": 829, "area_km2": 6.33, "hydrants_per_km2": 130.9 }, "geometry": { "type": "Point", "coordinates": [ -73.731399624447818, 40.7623577 ] } },
{ "type": "Feature", "properties": { "ntaname": "College Point", "boroname": "Queens", "ntaabbrev": "CllgPt", "nta2020": "QN0701", "hydrant_count": 796, "area_km2": 6.2, "hydrants_per_km2": 128.4 }, "geometry": { "type": "Point", "coordinates": [ -73.837188214280644, 40.7819841 ] } },
{ "type": "Feature", "properties": { "ntaname": "Hunts Point", "boroname": "Bronx", "ntaabbrev": "HntsPt", "nta2020": "BX0201", "hydrant_count": 533, "area_km2": 4.18, "hydrants_per_km2": 127.4 }, "geometry": { "type": "Point", "coordinates": [ -73.885439443845328, 40.8117728 ] } },
{ "type": "Feature", "properties": { "ntaname": "Coney Island-Sea Gate", "boroname": "Brooklyn", "ntaabbrev": "CnyIsl", "nta2020": "BK1302", "hydrant_count": 559, "area_km2": 4.42, "hydrants_per_km2": 126.4 }, "geometry": { "type": "Point", "coordinates": [ -73.990480142611091, 40.57686155 ] } },
{ "type": "Feature", "properties": { "ntaname": "Rosedale", "boroname": "Queens", "ntaabbrev": "Rsdl", "nta2020": "QN1307", "hydrant_count": 554, "area_km2": 4.39, "hydrants_per_km2": 126.2 }, "geometry": { "type": "Point", "coordinates": [ -73.735197438603507, 40.65943385 ] } },
{ "type": "Feature", "properties": { "ntaname": "Riverdale-Spuyten Duyvil", "boroname": "Bronx", "ntaabbrev": "Rvrdl", "nta2020": "BX0803", "hydrant_count": 708, "area_km2": 5.85, "hydrants_per_km2": 121.0 }, "geometry": { "type": "Point", "coordinates": [ -73.907055658138972, 40.89537345 ] } },
{ "type": "Feature", "properties": { "ntaname": "Bay Terrace-Clearview", "boroname": "Queens", "ntaabbrev": "ByTr_Clrvw", "nta2020": "QN0703", "hydrant_count": 428, "area_km2": 3.65, "hydrants_per_km2": 117.2 }, "geometry": { "type": "Point", "coordinates": [ -73.786868996489716, 40.7823149 ] } },
{ "type": "Feature", "properties": { "ntaname": "Breezy Point-Belle Harbor-Rockaway Park-Broad Channel", "boroname": "Queens", "ntaabbrev": "BrzyPt", "nta2020": "QN1403", "hydrant_count": 745, "area_km2": 6.43, "hydrants_per_km2": 115.8 }, "geometry": { "type": "Point", "coordinates": [ -73.848544084331166, 40.57685765 ] } },
{ "type": "Feature", "properties": { "ntaname": "Arden Heights-Rossville", "boroname": "Staten Island", "ntaabbrev": "ArdnHts", "nta2020": "SI0303", "hydrant_count": 717, "area_km2": 6.3, "hydrants_per_km2": 113.9 }, "geometry": { "type": "Point", "coordinates": [ -74.197289510247089, 40.55332585 ] } },
{ "type": "Feature", "properties": { "ntaname": "Springfield Gardens (South)-Brookville", "boroname": "Queens", "ntaabbrev": "SpfGrdns_S", "nta2020": "QN1306", "hydrant_count": 581, "area_km2": 5.34, "hydrants_per_km2": 108.9 }, "geometry": { "type": "Point", "coordinates": [ -73.756226846770332, 40.6562746 ] } },
{ "type": "Feature", "properties": { "ntaname": "Annadale-Huguenot-Prince's Bay-Woodrow", "boroname": "Staten Island", "ntaabbrev": "Anndl_Wdrw", "nta2020": "SI0304", "hydrant_count": 1708, "area_km2": 16.76, "hydrants_per_km2": 101.9 }, "geometry": { "type": "Point", "coordinates": [ -74.193673832885509, 40.52634225 ] } },
{ "type": "Feature", "properties": { "ntaname": "Spring Creek-Starrett City", "boroname": "Brooklyn", "ntaabbrev": "SpCrk_StrC", "nta2020": "BK0504", "hydrant_count": 220, "area_km2": 2.52, "hydrants_per_km2": 87.4 }, "geometry": { "type": "Point", "coordinates": [ -73.883581208322624, 40.64963995 ] } },
{ "type": "Feature", "properties": { "ntaname": "Mariner's Harbor-Arlington-Graniteville", "boroname": "Staten Island", "ntaabbrev": "MrnrsHrbr", "nta2020": "SI0107", "hydrant_count": 683, "area_km2": 8.3, "hydrants_per_km2": 82.2 }, "geometry": { "type": "Point", "coordinates": [ -74.164849952439198, 40.62881835 ] } },
{ "type": "Feature", "properties": { "ntaname": "Todt Hill-Emerson Hill-Lighthouse Hill-Manor Heights", "boroname": "Staten Island", "ntaabbrev": "TdtHl", "nta2020": "SI0203", "hydrant_count": 1282, "area_km2": 17.31, "hydrants_per_km2": 74.1 }, "geometry": { "type": "Point", "coordinates": [ -74.12618124288214, 40.58566 ] } },
{ "type": "Feature", "properties": { "ntaname": "Co-op City", "boroname": "Bronx", "ntaabbrev": "CoopCty", "nta2020": "BX1004", "hydrant_count": 181, "area_km2": 2.7, "hydrants_per_km2": 67.1 }, "geometry": { "type": "Point", "coordinates": [ -73.82876096261279, 40.87253025 ] } },
{ "type": "Feature", "properties": { "ntaname": "Tottenville-Charleston", "boroname": "Staten Island", "ntaabbrev": "Tttnvl", "nta2020": "SI0305", "hydrant_count": 745, "area_km2": 11.78, "hydrants_per_km2": 63.3 }, "geometry": { "type": "Point", "coordinates": [ -74.233264290901246, 40.5274418 ] } },
{ "type": "Feature", "properties": { "ntaname": "New Springville-Willowbrook-Bulls Head-Travis", "boroname": "Staten Island", "ntaabbrev": "NwSprngvl", "nta2020": "SI0204", "hydrant_count": 1111, "area_km2": 19.45, "hydrants_per_km2": 57.1 }, "geometry": { "type": "Point", "coordinates": [ -74.156307143012612, 40.60279595 ] } }
]
}
